ONEWEB-0275             
1 48993U 21060AC  24282.59010195  .00000177  00000+0  42819-3 0  9991
2 48993  87.9158 351.5931 0001977 101.7640 258.3713 13.16597148158427
ONEWEB-0276             
1 48994U 21060AD  24282.47134347  .00000027  00000+0  36038-4 0  9996
2 48994  87.9157 351.6124 0002158  98.8937 261.2438 13.16598178158420
ONEWEB-0277             
1 48995U 21060AE  24282.48401333  .00000251  00000+0  62358-3 0  9992
2 48995  87.9159 351.6478 0002360 105.5090 254.6302 13.16597644158418
ONEWEB-0278             
1 48996U 21060AF  24282.47450720 -.00000173  00000+0 -48612-3 0  9998
2 48996  87.9161 351.6089 0001822  90.2109 269.9230 13.16595515158541
ONEWEB-0279             
1 48997U 21060AG  24282.55842990  .00000096  00000+0  21732-3 0  9998
2 48997  87.9155 351.5893 0002211 106.9209 253.2164 13.16597787159788
ONEWEB-0280             
1 48998U 21060AH  24282.49662103  .00000177  00000+0  42813-3 0  9991
2 48998  87.9156 351.6043 0002096  95.4899 264.6471 13.16598017158419
ONEWEB-0281             
1 48999U 21060AJ  24282.57901222  .00000244  00000+0  60400-3 0  9996
2 48999  87.9159 351.5892 0001724 104.6120 255.5202 13.16598030158495
ONEWEB-0282             
1 49000U 21060AK  24282.22910987  .00000017  00000+0  10994-4 0  9992
2 49000  87.9157 351.6744 0002214  99.1812 260.9570 13.16597458158429
